     2.10           N:  GPS NAV DATA                        RINEX VERSION / TYPE
JPS2RIN V1.2.25     JAVAD GNSS          30-May-2018 15:59   PGM / RUN BY / DATE 
     .6519D-08   .2235D-07  -.5960D-07  -.1192D-06          ION ALPHA
     .8602D+05   .9830D+05  -.6554D+05  -.5243D+06          ION BETA
    -.186264514923D-08 -.355271367880D-14   503808      979 DELTA-UTC: A0,A1,T,W
    18                                                      LEAP SECONDS
                                                            END OF HEADER       
17 18  5 30 12  0  0.0 -.931075774133D-04  .375166564481D-11  .000000000000D+00
     .940000000000D+02 -.124031250000D+03  .403052503040D-08 -.127576979282D+01
    -.634603202343D-05  .123482546769D-01  .536069273949D-05  .515356703568D+04
     .302400000000D+06  .521540641785D-07  .253243123788D+01  .344589352608D-06
     .982853064667D+00  .288593750000D+03 -.177888256974D+01 -.803604901941D-08
    -.438589697593D-09  .100000000000D+01  .200300000000D+04  .000000000000D+00
     .300000000000D+01  .000000000000D+00 -.111758708954D-07  .940000000000D+02
     .302400000000D+06
18 18  5 30  7 59 44.0  .154059380293D-04  .477484718431D-11  .000000000000D+00
     .160000000000D+02 -.446875000000D+02  .452554565000D-08  .563655392932D+00
    -.244565308094D-05  .145495181205D-01  .111423432827D-04  .515365821838D+04
     .287984000000D+06 -.178813934326D-06 -.279603534482D+01  .111758708954D-07
     .949996299113D+00  .161937500000D+03  .130696078329D+01 -.814533928608D-08
     .358586365133D-09  .100000000000D+01  .200300000000D+04  .000000000000D+00
     .200000000000D+01  .000000000000D+00 -.698491930962D-08  .160000000000D+02
     .287984000000D+06
19 18  5 30 12  0  0.0 -.432390719652D-03  .295585778076D-11  .000000000000D+00
     .700000000000D+02 -.137218750000D+03  .392337771014D-08  .167703526343D+01
    -.745244324207D-05  .990238250233D-02  .585429370403D-05  .515372061157D+04
     .302400000000D+06 -.372529029846D-07  .257940705006D+01 -.180676579475D-06
     .980409172240D+00  .284250000000D+03  .119094101044D+01 -.792747306822D-08
    -.448947271884D-09  .100000000000D+01  .200300000000D+04  .000000000000D+00
     .200000000000D+01  .000000000000D+00 -.153668224812D-07  .700000000000D+02
     .302400000000D+06
20 18  5 30 16  0  0.0  .509372912347D-03  .909494701773D-12  .000000000000D+00
     .690000000000D+02  .244375000000D+02  .537986695020D-08 -.109692403168D+01
     .134855508804D-05  .426741084084D-02  .633485615253D-05  .515483601570D+04
     .316800000000D+06 -.540167093277D-07 -.181597329524D+01  .447034835815D-07
     .927975214167D+00  .242093750000D+03  .195699483692D+01 -.841249327125D-08
     .496806408267D-09  .100000000000D+01  .200300000000D+04  .000000000000D+00
     .200000000000D+01  .000000000000D+00 -.838190317154D-08  .690000000000D+02
     .316800000000D+06
21 18  5 30 16  0  0.0 -.388182699680D-03  .511590769747D-11  .000000000000D+00
     .640000000000D+02 -.609062500000D+02  .432196574151D-08 -.304800351253D+01
    -.308640301228D-05  .243843689095D-01  .109970569611D-04  .515370559883D+04
     .316800000000D+06  .355765223503D-06 -.280338365255D+01  .614672899246D-07
     .944254888395D+00  .151937500000D+03 -.155536624224D+01 -.741959477019D-08
     .243224416988D-09  .100000000000D+01  .200300000000D+04  .000000000000D+00
     .200000000000D+01  .000000000000D+00 -.102445483208D-07  .640000000000D+02
     .316800000000D+06
22 18  5 30  2  0  0.0 -.408673658967D-03 -.128466126625D-10  .000000000000D+00
     .880000000000D+02  .239375000000D+02  .589703134931D-08 -.816154127387D+00
     .127591192722D-05  .737835629843D-02  .507198274136D-05  .515379267311D+04
     .266400000000D+06 -.135973095894D-06 -.176562039665D+01 -.745058059692D-08
     .924664623239D+00  .262000000000D+03 -.153582743084D+01 -.877965142201D-08
     .260367988229D-09  .100000000000D+01  .200300000000D+04  .000000000000D+00
     .200000000000D+01  .000000000000D+00 -.176951289177D-07  .880000000000D+02
     .266400000000D+06
23 18  5 30  4  0  0.0 -.216508284211D-03  .454747350886D-12  .000000000000D+00
     .510000000000D+02 -.175937500000D+02  .511021286088D-08 -.410212736104D+00
    -.964850187302D-06  .125440262491D-01  .773370265961D-05  .515378926659D+04
     .273600000000D+06 -.484287738800D-07 -.673473082160D+00  .193715095520D-06
     .943536051412D+00  .219218750000D+03 -.235979151317D+01 -.839963559282D-08
    -.684314218720D-09  .100000000000D+01  .200300000000D+04  .000000000000D+00
     .200000000000D+01  .000000000000D+00 -.200234353542D-07  .510000000000D+02
     .273600000000D+06
24 18  5 30 14  0  0.0 -.504544004798D-04 -.568434188608D-12  .000000000000D+00
     .790000000000D+02  .946875000000D+02  .472233956154D-08 -.202694476959D+01
     .475905835629D-05  .694081943948D-02  .107455998659D-04  .515365389442D+04
     .309600000000D+06  .670552253723D-07  .345330809557D+00 -.838190317154D-07
     .942075617368D+00  .161906250000D+03  .541991682781D+00 -.797176062726D-08
     .392873507616D-10  .100000000000D+01  .200300000000D+04  .000000000000D+00
     .300000000000D+01  .000000000000D+00  .279396772385D-08  .790000000000D+02
     .309600000000D+06
25 18  5 30 16  0  0.0 -.593191478401D-03 -.591171556152D-11  .000000000000D+00
     .104000000000D+03  .767812500000D+02  .451161649836D-08 -.299259327542D+01
     .385567545891D-05  .750019226689D-02  .160373747349D-05  .515364238739D+04
     .316800000000D+06 -.186264514923D-08  .143794285655D+01 -.229105353355D-06
     .973972404374D+00  .353500000000D+03  .863124219560D+00 -.823105714228D-08
     .210365905441D-09  .100000000000D+01  .200300000000D+04  .000000000000D+00
     .300000000000D+01  .000000000000D+00  .605359673500D-08  .104000000000D+03
     .316800000000D+06
26 18  5 30 16  0  0.0 -.132041983306D-03  .125055521494D-10  .000000000000D+00
     .470000000000D+02  .738437500000D+02  .497556439509D-08  .275418729457D+01
     .386498868465D-05  .279516587034D-02  .191293656826D-05  .515366402626D+04
     .316800000000D+06 -.931322574615D-07  .141591518116D+01  .111758708954D-07
     .955520972667D+00  .340375000000D+03  .127887511440D+00 -.839892127736D-08
     .224295057075D-09  .100000000000D+01  .200300000000D+04  .000000000000D+00
     .200000000000D+01  .000000000000D+00  .745058059692D-08  .470000000000D+02
     .316800000000D+06
27 18  5 30 16  0  0.0  .367692206055D-03 -.113686837722D-11  .000000000000D+00
     .460000000000D+02 -.106843750000D+03  .426803492364D-08  .934193138265D+00
    -.534392893314D-05  .596759887412D-02  .441819429398D-05  .515368645668D+04
     .316800000000D+06  .260770320892D-07  .247824163913D+01  .521540641785D-07
     .977529764713D+00  .300375000000D+03  .428100514253D+00 -.812069540242D-08
    -.418946022212D-09  .100000000000D+01  .200300000000D+04  .000000000000D+00
     .200000000000D+01  .000000000000D+00  .139698386192D-08  .460000000000D+02
     .316800000000D+06
28 18  5 30 10  0  0.0  .719535630196D-03  .329691829393D-11  .000000000000D+00
     .360000000000D+02  .450625000000D+02  .426482050404D-08 -.133087965774D+01
     .257790088654D-05  .194855650188D-01  .152923166752D-05  .515367855644D+04
     .295200000000D+06 -.262632966042D-06  .152111970451D+01  .443309545517D-06
     .985598956050D+00  .365312500000D+03 -.151963677518D+01 -.834820487910D-08
    -.346443002170D-10  .100000000000D+01  .200300000000D+04  .000000000000D+00
     .400000000000D+01  .000000000000D+00 -.111758708954D-07  .360000000000D+02
     .295200000000D+06
29 18  5 30 16  0  0.0  .441127922386D-03 -.648014975013D-11  .000000000000D+00
     .440000000000D+02 -.125343750000D+03  .396087927223D-08  .189493087973D+01
    -.671111047268D-05  .791405211203D-03  .502169132233D-05  .515369327927D+04
     .316800000000D+06  .186264514923D-08  .254292007524D+01  .223517417908D-07
     .984136838187D+00  .294406250000D+03  .117680352666D+01 -.791247244338D-08
    -.431446542909D-09  .100000000000D+01  .200300000000D+04  .000000000000D+00
     .200000000000D+01  .000000000000D+00 -.102445483208D-07  .440000000000D+02
     .316800000000D+06
30 18  5 30 10  0  0.0  .683730468154D-04 -.432009983342D-11  .000000000000D+00
     .720000000000D+02  .109531250000D+03  .471555356459D-08  .129328917016D+01
     .589899718761D-05  .342650187667D-02  .979565083981D-05  .515374347115D+04
     .295200000000D+06  .502914190292D-07  .438730078480D+00  .186264514923D-08
     .944575121162D+00  .178750000000D+03 -.307686620890D+01 -.811319509000D-08
    -.115719105880D-09  .100000000000D+01  .200300000000D+04  .000000000000D+00
     .200000000000D+01  .000000000000D+00  .372529029846D-08  .720000000000D+02
     .295200000000D+06
31 18  5 30 16  0  0.0  .118053052574D-03 -.261479726760D-11  .000000000000D+00
     .660000000000D+02  .957187500000D+02  .427946397114D-08 -.211434919918D+01
     .481307506561D-05  .876180245541D-02  .104829668999D-04  .515367439461D+04
     .316800000000D+06 -.137835741043D-06  .417537711756D+00 -.149011611938D-06
     .963636180092D+00  .183343750000D+03 -.129103016425D+00 -.778318134360D-08
     .960754304987D-10  .100000000000D+01  .200300000000D+04  .000000000000D+00
     .200000000000D+01  .000000000000D+00 -.135041773319D-07  .660000000000D+02
     .316800000000D+06
32 18  5 30 12  0  0.0 -.502143520862D-03  .579802872380D-11  .000000000000D+00
     .470000000000D+02 -.213125000000D+02  .480698594455D-08 -.461262941910D+00
    -.102631747723D-05  .214874162339D-02  .784546136856D-05  .515366661072D+04
     .302400000000D+06 -.167638063431D-07 -.667081898822D+00  .577419996262D-07
     .957081781909D+00  .227156250000D+03 -.255394895027D+01 -.802069123684D-08
    -.450375902821D-09  .100000000000D+01  .200300000000D+04  .000000000000D+00
     .200000000000D+01  .000000000000D+00  .465661287308D-09  .470000000000D+02
     .302400000000D+06
